{"type": "FeatureCollection", "features": [ {"type": "Feature", "properties": {"norad_id": 36692, "name": "FENGYUN 1C DEB", "group": "fengyun-1c-debris", "lat": 49.08119217863783, "lon": -103.19722735154133, "alt_km": 889.6466506566794, "timestamp": "2025-12-27T07:26:25.510465+00:00", "meta": {"OBJECT_NAME": "FENGYUN 1C DEB", "OBJECT_ID": "1999-025DZN", "EPOCH": "2025-12-24T13:43:23.157120", "MEAN_MOTION": 13.93485945, "ECCENTRICITY": 0.01144657, "INCLINATION": 99.9949, "RA_OF_ASC_NODE": 265.5847, "ARG_OF_PERICENTER": 342.2339, "MEAN_ANOMALY": 17.4832, "EPHEMERIS_TYPE": 0, "CLASSIFICATION_TYPE": "U", "NORAD_CAT_ID": 36692, "ELEMENT_SET_NO": 999, "REV_AT_EPOCH": 59970, "BSTAR": 0.0004851142, "MEAN_MOTION_DOT": 6.19e-06, "MEAN_MOTION_DDOT": 0}, "tle": {"line1": "1 36692U 99025DZN 25358.57179580  .00000619  00000+0  48511-3 0  9993", "line2": "2 36692  99.9949 265.5847 0114465 342.2339  17.4832 13.93485945599707"}}, "geometry": {"type": "Point", "coordinates": [-103.19722735154133, 49.08119217863783]}}, {"type": "Feature", "properties": {"norad_id": 36695, "name": "FENGYUN 1C DEB", "group": "fengyun-1c-debris", "lat": 36.43608512921702, "lon": -23.960249521933267, "alt_km": 621.0062753932916, "timestamp": "2025-12-27T07:26:25.510475+00:00", "meta": {"OBJECT_NAME": "FENGYUN 1C DEB", "OBJECT_ID": "1999-025DZR", "EPOCH": "2025-12-26T16:18:14.524992", "MEAN_MOTION": 14.43772665, "ECCENTRICITY": 0.02577392, "INCLINATION": 98.2225, "RA_OF_ASC_NODE": 341.5575, "ARG_OF_PERICENTER": 88.1652, "MEAN_ANOMALY": 274.9036, "EPHEMERIS_TYPE": 0, "CLASSIFICATION_TYPE": "U", "NORAD_CAT_ID": 36695, "ELEMENT_SET_NO": 999, "REV_AT_EPOCH": 89769, "BSTAR": 0.00022580932, "MEAN_MOTION_DOT": 1.101e-05, "MEAN_MOTION_DDOT": 0}, "tle": {"line1": "1 36695U 99025DZR 25360.67933478  .00001101  00000+0  22581-3 0  9990", "line2": "2 36695  98.2225 341.5575 0257739  88.1652 274.9036 14.43772665897697"}}, "geometry": {"type": "Point", "coordinates": [-23.960249521933267, 36.43608512921702]}}, {"type": "Feature", "properties": {"norad_id": 36696, "name": "FENGYUN 1C DEB", "group": "fengyun-1c-debris", "lat": 52.960483983072244, "lon": -1.107559910527207, "alt_km": 765.7410809053918, "timestamp": "2025-12-27T07:26:25.510485+00:00", "meta": {"OBJECT_NAME": "FENGYUN 1C DEB", "OBJECT_ID": "1999-025DZS", "EPOCH": "2025-12-20T18:21:37.280448", "MEAN_MOTION": 14.39290248, "ECCENTRICITY": 0.0022773, "INCLINATION": 98.991, "RA_OF_ASC_NODE": 4.1437, "ARG_OF_PERICENTER": 304.9139, "MEAN_ANOMALY": 54.9908, "EPHEMERIS_TYPE": 0, "CLASSIFICATION_TYPE": "U", "NORAD_CAT_ID": 36696, "ELEMENT_SET_NO": 999, "REV_AT_EPOCH": 64511, "BSTAR": 0.0012348867, "MEAN_MOTION_DOT": 3.799e-05, "MEAN_MOTION_DDOT": 0}, "tle": {"line1": "1 36696U 99025DZS 25354.76501482  .00003799  00000+0  12349-2 0  9995", "line2": "2 36696  98.9910   4.1437 0022773 304.9139  54.9908 14.39290248645111"}}, "geometry": {"type": "Point", "coordinates": [-1.107559910527207, 52.960483983072244]}}, {"type": "Feature", "properties": {"norad_id": 36699, "name": "FENGYUN 1C DEB", "group": "fengyun-1c-debris", "lat": 22.251411300443266, "lon": -8.09670876510758, "alt_km": 781.5725046928837, "timestamp": "2025-12-27T07:26:25.510495+00:00", "meta": {"OBJECT_NAME": "FENGYUN 1C DEB", "OBJECT_ID": "1999-025DZV", "EPOCH": "2025-12-26T06:02:44.636064", "MEAN_MOTION": 14.24309134, "ECCENTRICITY": 0.009491, "INCLINATION": 98.5596, "RA_OF_ASC_NODE": 354.4053, "ARG_OF_PERICENTER": 91.1474, "MEAN_ANOMALY": 270.0581, "EPHEMERIS_TYPE": 0, "CLASSIFICATION_TYPE": "U", "NORAD_CAT_ID": 36699, "ELEMENT_SET_NO": 999, "REV_AT_EPOCH": 73519, "BSTAR": 0.00024958, "MEAN_MOTION_DOT": 5.62e-06, "MEAN_MOTION_DDOT": 0}, "tle": {"line1": "1 36699U 99025DZV 25360.25190551  .00000562  00000+0  24958-3 0  9995", "line2": "2 36699  98.5596 354.4053 0094910  91.1474 270.0581 14.24309134735199"}}, "geometry": {"type": "Point", "coordinates": [-8.09670876510758, 22.251411300443266]}}, {"type": "Feature", "properties": {"norad_id": 36701, "name": "FENGYUN 1C DEB", "group": "fengyun-1c-debris", "lat": 77.24137372005296, "lon": -128.1606720542551, "alt_km": 1108.140913215966, "timestamp": "2025-12-27T07:26:25.510505+00:00", "meta": {"OBJECT_NAME": "FENGYUN 1C DEB", "OBJECT_ID": "1999-025DZX", "EPOCH": "2025-12-25T14:42:49.417344", "MEAN_MOTION": 13.71379325, "ECCENTRICITY": 0.0258174, "INCLINATION": 102.7471, "RA_OF_ASC_NODE": 318.1305, "ARG_OF_PERICENTER": 224.125, "MEAN_ANOMALY": 133.9027, "EPHEMERIS_TYPE": 0, "CLASSIFICATION_TYPE": "U", "NORAD_CAT_ID": 36701, "ELEMENT_SET_NO": 999, "REV_AT_EPOCH": 61315, "BSTAR": 0.0017616, "MEAN_MOTION_DOT": 1.936e-05, "MEAN_MOTION_DDOT": 0}, "tle": {"line1": "1 36701U 99025DZX 25359.61307196  .00001936  00000+0  17616-2 0  9990", "line2": "2 36701 102.7471 318.1305 0258174 224.1250 133.9027 13.71379325613157"}}, "geometry": {"type": "Point", "coordinates": [-128.1606720542551, 77.24137372005296]}}, {"type": "Feature", "properties": {"norad_id": 36707, "name": "FENGYUN 1C DEB", "group": "fengyun-1c-debris", "lat": -80.21666397396353, "lon": 163.9078361727516, "alt_km": 877.2969333236315, "timestamp": "2025-12-27T07:26:25.510515+00:00", "meta": {"OBJECT_NAME": "FENGYUN 1C DEB", "OBJECT_ID": "1999-025EAD", "EPOCH": "2025-12-21T21:25:47.185536", "MEAN_MOTION": 14.17337167, "ECCENTRICITY": 0.00496219, "INCLINATION": 98.751, "RA_OF_ASC_NODE": 41.8648, "ARG_OF_PERICENTER": 96.1028, "MEAN_ANOMALY": 264.5804, "EPHEMERIS_TYPE": 0, "CLASSIFICATION_TYPE": "U", "NORAD_CAT_ID": 36707, "ELEMENT_SET_NO": 999, "REV_AT_EPOCH": 64209, "BSTAR": 0.00072069372, "MEAN_MOTION_DOT": 1.432e-05, "MEAN_MOTION_DDOT": 0}, "tle": {"line1": "1 36707U 99025EAD 25355.89290724  .00001432  00000+0  72069-3 0  9995", "line2": "2 36707  98.7510  41.8648 0049621  96.1028 264.5804 14.17337167642094"}}, "geometry": {"type": "Point", "coordinates": [163.9078361727516, -80.21666397396353]}}, {"type": "Feature", "properties": {"norad_id": 36710, "name": "FENGYUN 1C DEB", "group": "fengyun-1c-debris", "lat": 77.10762754258246, "lon": 18.25385512973722, "alt_km": 692.0080681584659, "timestamp": "2025-12-27T07:26:25.510525+00:00", "meta": {"OBJECT_NAME": "FENGYUN 1C DEB", "OBJECT_ID": "1999-025EAG", "EPOCH": "2025-12-15T10:11:57.749280", "MEAN_MOTION": 14.49882943, "ECCENTRICITY": 0.00679739, "INCLINATION": 98.3812, "RA_OF_ASC_NODE": 46.5328, "ARG_OF_PERICENTER": 173.535, "MEAN_ANOMALY": 186.6737, "EPHEMERIS_TYPE": 0, "CLASSIFICATION_TYPE": "U", "NORAD_CAT_ID": 36710, "ELEMENT_SET_NO": 999, "REV_AT_EPOCH": 64992, "BSTAR": 0.00098752348, "MEAN_MOTION_DOT": 3.884e-05, "MEAN_MOTION_DDOT": 0}, "tle": {"line1": "1 36710U 99025EAG 25349.42497395  .00003884  00000+0  98752-3 0  9994", "line2": "2 36710  98.3812  46.5328 0067973 173.5350 186.6737 14.49882943649924"}}, "geometry": {"type": "Point", "coordinates": [18.25385512973722, 77.10762754258246]}}, {"type": "Feature", "properties": {"norad_id": 36711, "name": "FENGYUN 1C DEB", "group": "fengyun-1c-debris", "lat": -64.00740981408285, "lon": 47.50270085683304, "alt_km": 798.0885254992363, "timestamp": "2025-12-27T07:26:25.510535+00:00", "meta": {"OBJECT_NAME": "FENGYUN 1C DEB", "OBJECT_ID": "1999-025EAH", "EPOCH": "2025-12-22T19:33:17.805888", "MEAN_MOTION": 14.42563106, "ECCENTRICITY": 0.01001116, "INCLINATION": 100.8026, "RA_OF_ASC_NODE": 18.7671, "ARG_OF_PERICENTER": 180.6159, "MEAN_ANOMALY": 179.4915, "EPHEMERIS_TYPE": 0, "CLASSIFICATION_TYPE": "U", "NORAD_CAT_ID": 36711, "ELEMENT_SET_NO": 999, "REV_AT_EPOCH": 64456, "BSTAR": 0.0021992157, "MEAN_MOTION_DOT": 7.693e-05, "MEAN_MOTION_DDOT": 0}, "tle": {"line1": "1 36711U 99025EAH 25356.81478942  .00007693  00000+0  21992-2 0  9996", "line2": "2 36711 100.8026  18.7671 0100111 180.6159 179.4915 14.42563106644564"}}, "geometry": {"type": "Point", "coordinates": [47.50270085683304, -64.00740981408285]}}, {"type": "Feature", "properties": {"norad_id": 36716, "name": "FENGYUN 1C DEB", "group": "fengyun-1c-debris", "lat": 16.67530988573307, "lon": -82.58367468721883, "alt_km": 1042.1680232082235, "timestamp": "2025-12-27T07:26:25.510545+00:00", "meta": {"OBJECT_NAME": "FENGYUN 1C DEB", "OBJECT_ID": "1999-025EAN", "EPOCH": "2025-12-24T13:38:03.454656", "MEAN_MOTION": 13.8842033, "ECCENTRICITY": 0.01483644, "INCLINATION": 99.2293, "RA_OF_ASC_NODE": 277.4949, "ARG_OF_PERICENTER": 196.842, "MEAN_ANOMALY": 162.7782, "EPHEMERIS_TYPE": 0, "CLASSIFICATION_TYPE": "U", "NORAD_CAT_ID": 36716, "ELEMENT_SET_NO": 999, "REV_AT_EPOCH": 63095, "BSTAR": 0.00021899669, "MEAN_MOTION_DOT": 2.42e-06, "MEAN_MOTION_DDOT": 0}, "tle": {"line1": "1 36716U 99025EAN 25358.56809554  .00000242  00000+0  21900-3 0  9995", "line2": "2 36716  99.2293 277.4949 0148364 196.8420 162.7782 13.88420330630955"}}, "geometry": {"type": "Point", "coordinates": [-82.58367468721883, 16.67530988573307]}}, {"type": "Feature", "properties": {"norad_id": 36724, "name": "FENGYUN 1C DEB", "group": "fengyun-1c-debris", "lat": 18.38705066240851, "lon": 31.013584976564903, "alt_km": 862.3224544012746, "timestamp": "2025-12-27T07:26:25.510555+00:00", "meta": {"OBJECT_NAME": "FENGYUN 1C DEB", "OBJECT_ID": "1999-025EAW", "EPOCH": "2025-12-22T01:08:19.052736", "MEAN_MOTION": 14.25358317, "ECCENTRICITY": 0.01037225, "INCLINATION": 99.4676, "RA_OF_ASC_NODE": 28.5169, "ARG_OF_PERICENTER": 171.606, "MEAN_ANOMALY": 218.6674, "EPHEMERIS_TYPE": 0, "CLASSIFICATION_TYPE": "U", "NORAD_CAT_ID": 36724, "ELEMENT_SET_NO": 999, "REV_AT_EPOCH": 57605, "BSTAR": 0.0017254927, "MEAN_MOTION_DOT": 4.254e-05, "MEAN_MOTION_DDOT": 0}, "tle": {"line1": "1 36724U 99025EAW 25356.04744274  .00004254  00000+0  17255-2 0  9996", "line2": "2 36724  99.4676  28.5169 0103722 171.6060 218.6674 14.25358317576058"}}, "geometry": {"type": "Point", "coordinates": [31.013584976564903, 18.38705066240851]}}]}